ORBCOMM FM103           
1 40091U 14040F   25279.31876911  .00001231  00000+0  29972-3 0  9992
2 40091  47.0047 212.9086 0001265  44.2490 315.8497 14.58360203580320
ORBCOMM FM114           
1 41179U 15081A   25279.54276058  .00001101  00000+0  27175-3 0  9996
2 41179  47.0017 120.8380 0001785 150.0176 210.0812 14.58396006520728
ORBCOMM FM119           
1 41180U 15081B   25279.46733957  .00001261  00000+0  30632-3 0  9994
2 41180  47.0017  30.5367 0001697 221.9026 138.1730 14.58337185521965
ORBCOMM FM105           
1 41181U 15081C   25279.38606530  .00000565  00000+0  20387-3 0  9994
2 41181  47.0024  46.6995 0001188 114.8407 245.2597 14.45318188516836
ORBCOMM FM110           
1 41182U 15081D   25279.53465749  .00001250  00000+0  30346-3 0  9995
2 41182  47.0008 120.4078 0002369 342.9534  17.1272 14.58424433520598
ORBCOMM FM118           
1 41183U 15081E   25279.08773067  .00001064  00000+0  26388-3 0  9995
2 41183  47.0030 122.7836 0003076 299.2125  60.8453 14.58392757520631
ORBCOMM FM112           
1 41184U 15081F   25279.43565293  .00001393  00000+0  33350-3 0  9997
2 41184  46.9995  29.7351 0001437 172.1090 187.9818 14.58471079521909
ORBCOMM FM113           
1 41185U 15081G   25279.34424630  .00001309  00000+0  31569-3 0  9994
2 41185  47.0008  30.5109 0001403 189.6406 170.4453 14.58457824521875
